,sigla,iata,nombre,municipio,departamento,categoria,latitud,longitud,propietario,explotador,longitud_pista,ancho_pista,pbmo,elevacion,resolucion,fecha_construccion,fecha_vigencia,clase,tipo,numero_vuelos_origen,gcd_departamento,gcd_municipio
274,BOG,BOG,EL DORADO,"Bogotá, D.C.","Bogotá, D.C.",Internacional,4.7017,-74.1469,AEROCIVIL,EN CONCESION CODAD,3800.0,60.0,nan,8356.0,"  320,000",1999-12-09,nan,4E,Aerocivil,1804153.0,11,11001
134,9DG,nan,EL LAGO - CA,Piedras,Tolima,Aeródromo,4.5575,-74.9003,BERNEY RODRIGUEZ,OSMANI RODRIGUEZ CARDOZO,350.0,10.0,500.0,1050.0," 6744,000",2016-12-17,nan,UL,Privado,479797.0,73,73547
803,TLU,TLU,TOLU,Tolú Viejo,Sucre,Regional,9.5095,-75.5859,AEROCIVIL,AEROCIVIL,1350.0,16.0,12202.0,15.0,"  455,000",2000-12-24,nan,2A,Aerocivil,227253.0,70,70823
174,9MK,nan,VILLA ISABELLA,Trinidad,Casanare,Aeródromo,5.2993,-71.3434,RAFAEL QUESADA,TAES LTDA.,800.0,10.0,2000.0,620.0," 4313,000",2018-10-31,nan,1A,Fumigación,493950.0,85,85430
344,CUC,CUC,CAMILO DAZA,San José de Cúcuta,Norte de Santander,Internacional,7.9274,-72.5116,AEROCIVIL,AEROCIVIL -ORIENTE S.A.S.,1920.0,45.0,nan,1027.0,"  984,000",2013-04-28,nan,4D,Aerocivil,91797.0,54,54001
92,9BE,nan,LAS VEGAS,Paz de Ariporo,Casanare,Aeródromo,6.0072,-71.2842,ALEIDA JERONIMO NAVAS,ALEIDA JERONIMO NAVAS,740.0,15.0,3500.0,430.0," 1657,000",2016-11-10,nan,1A,Privado,462527.0,85,85250
860,YPP,nan,GERMAN ALBERTO,Yopal,Casanare,Aeródromo,5.1875,-72.3191,JOSE NELSON PEREZ R.,CELTA LTDA.,800.0,15.0,2000.0,735.0," 4511,000",2018-11-25,2018-11-10,1A,Fumigación,45537.0,85,85001
855,VVU,nan,SANTA ISABEL,Villavicencio,Meta,Aeródromo,3.9873,-73.2091,EFA LTDA.,EFA LTDA.,800.0,10.0,2000.0,689.0," 2634,000",2018-11-27,nan,1A,Fumigación,119198.0,50,50001
10,7GD,nan,VELASQUEZ,Puerto Boyacá,Boyacá,Aeródromo,5.9482,-74.4575,FAC,MANSAROVAR,1500.0,18.0,10000.0,617.0," 2135,000",2016-11-25,nan,3C,Privado,987668.0,15,15572
178,9MO,nan,SAN NICOLAS,Tauramena,Casanare,Aeródromo,4.4703,-72.4575,CARLOS E. CONTRERAS,ASAM LTDA.,840.0,10.0,2000.0,585.0," 4510,000",2012-08-22,nan,1A,Fumigación,244452.0,85,85410
797,TCO,nan,LA FLORIDA,San Andrés de Tumaco,Nariño,Nacional,1.8144,-78.749,AEROCIVIL,AEROCIVIL,1600.0,30.0,nan,10.0,"  455,000",1973-11-19,nan,3C,Aerocivil,596754.0,52,52835
374,ELB,ELB,LAS FLORES,El Banco,Magdalena,Aeródromo,9.0428,-73.9715,AEROCIVIL,AEROCIVIL,1225.0,28.0,19045.0,110.0," 1374,000",1996-09-15,nan,3B,Aerocivil,58930.0,47,47245
75,9AJ,nan,SAN LUIS DE PACA,Mitú,Vaupés,Aeródromo,0.8744,-70.3464,RESGUARDO INDIGENA,GOBERNACION DEL VAUPES,424.0,10.0,1650.0,590.0," 3423,000",2011-09-19,nan,1A,Público,186305.0,97,97001
203,A03,nan,FORTUL,Fortul,Arauca,Aeródromo,6.7817,-71.7791,GOBERNACION,MUNICIPIO,700.0,13.0,4000.0,730.0," 2036,000",2014-11-29,nan,1A,Público,575874.0,81,81300
62,7NP,nan,EL CAIRANO,Santa Catalina,Bolívar,Aeródromo,10.7124,-75.2649,CARLOS E. GUERRERO,ENRIQUE MORALES NUÑEZ,215.0,10.0,400.0,30.0,"  998,000",2016-08-08,nan,UL,Privado,42644.0,13,13673
177,9MN,nan,EL PEDRAL BONANZA,Puerto Wilches,Santander,Aeródromo,7.2417,-73.8151,nan,AEROPENORT LTDA.,800.0,10.0,3000.0,282.0,nan,2013-10-11,2012-09-22,1A,Fumigación,883478.0,68,68575
607,NQU,NQU,REYES MURILLO,Nuquí,Chocó,Regional,5.712,-77.2627,AEROCIVIL,AEROCIVIL,930.0,10.0,nan,13.0,"    2,279",2004-08-24,nan,1A,Aerocivil,163264.0,27,27495
268,BMG,nan,BARRANCO MINAS,Barranco Minas,Guainía,Aeródromo,3.4907,-69.8097,GOBERNACION,DEPARTAMENTO,900.0,15.0,nan,125.0," 2477,000",1984-09-17,nan,1A,Público,1027931.0,94,94343
170,9MG,nan,MADREVIEJA,Nunchía,Casanare,Aeródromo,5.4623,-71.9584,CELMIRA BARRAGAN F.,CELMIRA BARRAGAN F.,1000.0,10.0,2000.0,640.0," 4509,000",2018-10-16,nan,1A,Fumigación,314181.0,85,85225
661,PIP,RON,PAIPA JUAN JOSE RONDON,Paipa,Boyacá,Aeródromo,5.7644,-73.1057,AEROCIVIL,AEROCIVIL,1700.0,30.0,11400.0,8205.0,"  984,000",1996-02-30,nan,3C,Aerocivil,202729.0,15,15516
206,ACD,ACD,ALCIDES FERNANDEZ,Acandí,Chocó,Regional,8.4969,-77.2739,INCORA LTDA,MUNICIPIO,1200.0,16.0,nan,50.0," 1072,000",2018-10-18,nan,3A,Público,226258.0,27,27006
71,9AD,nan,URACA - CA.,Puerto Colombia,Atlántico,Aeródromo,11.0062,-74.9224,NORA CARVAJALINO,ALAS DEL CARIBE,320.0,10.0,800.0,204.0," 5624,000",2018-11-13,2018-11-30,UL,Privado,527085.0,8,8573
209,ACP,nan,ACAPULCO,Nunchía,Casanare,Aeródromo,5.4086,-71.8694,YOLANDA CAMACHO V.,MARIA A. PACHECO OCHOA,870.0,10.0,2000.0,656.0," 4895,000",2016-12-22,2014-09-15,1A,Fumigación,623127.0,85,85225
12,7GF,nan,LA UNION,Paz de Ariporo,Casanare,Aeródromo,5.6283,-70.7032,MARTHA Y. VARGAS DE R.,GEOPARK CUERVA,640.0,18.0,3500.0,335.0," 2136,000",2014-08-27,nan,1A,Privado,830938.0,85,85250
112,9CD,nan,VARSOVIA,Paz de Ariporo,Casanare,Aeródromo,5.849,-70.3648,MUNICIPIO,MUNICIPIO,550.0,15.0,2000.0,328.0," 4541,000",2014-12-29,2018-11-17,1A,Público,985035.0,85,85250
111,9CC,nan,EL TOTUMO,Paz de Ariporo,Casanare,Aeródromo,5.9387,-71.2217,MUNICIPIO,MUNICIPIO,520.0,15.0,2000.0,476.0," 4541,000",2017-12-29,2016-11-25,1A,Público,333041.0,85,85250
30,7HC,nan,EL CAFUCHE,La Primavera,Vichada,Aeródromo,5.3152,-70.0184,ANDRES CARVAJAL MOLINA,ANDRES CARVAJAL MOLINA,850.0,18.0,4000.0,384.0," 3826,000",2017-08-30,2018-08-29,1A,Privado,407605.0,99,99524
160,9LX,nan,LA GAITANA,Cabuyaro,Meta,Aeródromo,4.2253,-73.0298,P.VICENTE PERALES,FACOL LTDA.,800.0,10.0,4500.0,627.0," 1844,000",2018-11-28,nan,1A,Fumigación,71073.0,50,50124
858,YOP,nan,TROMPILLOS,Yopal,Casanare,Aeródromo,5.0932,-72.1807,ALEXANDER RIVERA,CELTA LTDA.,800.0,15.0,2000.0,623.0," 4736,000",2017-12-14,nan,1A,Fumigación,37973.0,85,85001
120,9CL,nan,LA VENTUROSA,San Luis de Palenque,Casanare,Aeródromo,5.2388,-71.3035,MUNICIPIO,EL MISMO,620.0,15.0,2000.0,459.0," 4542,000",2007-11-31,nan,1A,Público,664553.0,85,85325
250,BAL,nan,INGENIO RISARALDA,Balboa,Risaralda,Aeródromo,4.8948,-75.9044,INGENIO RISARALDA,ING.RISARALDA-ASOCAÑA,250.0,10.0,500.0,3034.0," 2954,000",2016-06-29,2015-09-30,1A,Fumigación,800814.0,66,66075
798,TDA,TDA,TRINIDAD,Trinidad,Casanare,Aeródromo,5.4349,-71.6584,AEROCIVIL,AEROCIVIL,1148.0,10.0,12202.0,560.0,"  644,000",2017-07-15,nan,2A,Aerocivil,641926.0,85,85430
699,PTW,nan,GEMELOS DORADOS,Puerto Wilches,Santander,Aeródromo,7.2466,-73.7723,MILTON A. SALAZAR REY,EL MISMO,850.0,15.0,5670.0,314.0," 6473,000",2014-12-30,2018-06-28,1A,Privado,365766.0,68,68575
155,9LR,nan,LOS REMANSOS,Cimitarra,Santander,Aeródromo,6.5729,-74.2195,NELLY VALENCIA,AEROPENORT LTDA.,700.0,10.0,3000.0,357.0," 4373,000",2018-10-31,2016-12-14,1A,Fumigación,244511.0,68,68190
443,HTZ,HTZ,HATO COROZAL,Hato Corozal,Casanare,Aeródromo,6.1535,-71.7616,AEROCIVIL,AEROCIVIL,1040.0,14.0,12202.0,830.0,"  502,000",1980-10-29,nan,2C,Aerocivil,543830.0,85,85125
73,9AH,nan,SAN ROQUE  - CA.,San Pedro,Valle del Cauca,Aeródromo,4.0039,-76.2209,IRMA HERNANDEZ DE M.,JAKOB OLIVIER,235.0,10.0,400.0,3366.0," 5622,000",2015-10-19,nan,UL,Privado,178332.0,76,76670
157,9LT,nan,LOS GAVANES (LA MATA),Arauca,Arauca,Aeródromo,7.0093,-70.7743,FUMIGAR,FUMIVILLA,760.0,12.0,3000.0,416.0," 2141,000",2016-10-23,nan,1A,Fumigación,562394.0,81,81001
183,9MT,nan,AGUAS CLARAS,Sabana de Torres,Santander,Aeródromo,7.2731,-73.5626,EDGAR MEZA ORTIZ,EDGAR MEZA ORTIZ,800.0,10.0,2500.0,652.0," 1681,000",2014-10-25,nan,1A,Fumigación,73037.0,68,68655
340,CTG,CTG,RAFAEL NUÑEZ,Cartagena de Indias,Bolívar,Internacional,10.442,-75.5123,AEROCIVIL,CONCESION-SACSA,2380.0,45.0,nan,7.0," 4501,000",2012-11-25,nan,4D,Aerocivil,598113.0,13,13001
130,9DB,nan,PALMAS DE TUMACO  -CA,San Andrés de Tumaco,Nariño,Aeródromo,1.496,-78.765,PALMAS DE TUMACO S.A.,PALMAS DE TUMACO S.A.,225.0,10.0,500.0,136.0," 1897,000",2014-05-17,2018-06-10,UL,Privado,755411.0,52,52835
703,PUU,PUU,TRES DE MAYO,Puerto Asís,Putumayo,Nacional,0.5054,-76.5008,AEROCIVIL,AEROCIVIL,1485.0,25.0,33112.0,809.0,"  115,000",1981-09-09,nan,3C,Aerocivil,251978.0,86,86568
158,9LU,nan,EL RODEO,Tauramena,Casanare,Aeródromo,4.5772,-72.6914,JEREMIAS VACA RIAÑO,ASAM LTDA.,800.0,10.0,2000.0,746.0," 6069,000",2014-11-25,nan,1A,Fumigación,733005.0,85,85410
171,9MH,nan,SAN JUAN,San Martín,Meta,Aeródromo,3.7017,-73.3774,RODOLFO MENDEZ,MARIA A. PACHECO O.,740.0,10.0,2000.0,870.0," 1840,000",2015-10-27,2016-07-08,1A,Fumigación,127582.0,50,50689
145,9LG,nan,VILLA GEORGINA,Tauramena,Casanare,Aeródromo,4.3625,-74.3214,SANTIAGO PULIDO NIÑO,COMERCIALIZAD. ECO,710.0,10.0,2000.0,594.0,nan,2018-10-22,nan,1A,Fumigación,707334.0,85,85410
2,7FU,nan,LA ESCONDIDA,Puerto Gaitán,Meta,Aeródromo,4.6108,-71.1935,PALMAS SICARARE S.A.S.,COSARGO S.A.S.,1300.0,18.0,5000.0,564.0," 1843,000",2015-09-29,2017-05-31,1A,Fumigación,751777.0,50,50568
822,UIB,UIB,EL CARAÑO,Quibdó,Chocó,Nacional,5.6908,-76.6412,AEROCIVIL,EN CONCESION-SOACN(Sociedad Operadora de Aeropuertos Centro Norte,1300.0,30.0,63196.0,192.0,"  522,000",2010-12-17,nan,3C,Aerocivil,141894.0,27,27001
185,9MW,nan,LAS NUBES,Puerto Gaitán,Meta,Aeródromo,4.2563,-71.7977,AGMO NUBES INVER.S.A.S,AGMO NUBES INVERSIONES,1000.0,18.0,4500.0,1030.0," 1942,000",2017-09-04,2018-12-18,1A,Fumigación,657540.0,50,50568
33,7HF,nan,GAVILAN DE LA PASCUA,La Primavera,Vichada,Aeródromo,5.1166,-70.3806,RESGUARDO INDIGENA ORIPGA,RES. INDIGENA ORIPGA,1200.0,15.0,3500.0,419.0," 7257,000",2016-12-22,nan,1A,Público,66992.0,99,99524
90,9BC,nan,CANTADELICIAS,Alpujarra,Tolima,Aeródromo,3.3873,-74.9338,MUNICIPIO,MUNICIPIO,700.0,15.0,12200.0,4213.0," 4541,000",2013-11-26,nan,1A,Público,53331.0,73,73024
210,ACR,ACR,ARARACUARA,Solano,Caquetá,Regional,-0.6008,-72.3981,GOBERNACION,GOBERNACION,1300.0,30.0,27000.0,800.0,"   31,000",2008-03-09,nan,3C,Público,447787.0,18,18756
265,BIZ,nan,BIZERTA,Nunchía,Casanare,Aeródromo,5.4225,-71.9936,CELMIRA BARRAGAN F.,FUMIVILLA LTDA,700.0,10.0,2000.0,639.0,"  151,000",2016-09-28,nan,1A,Fumigación,224806.0,85,85225
175,9ML,nan,MIRADOR,Trinidad,Casanare,Aeródromo,5.4326,-71.6009,ANGELICA VEGA,TAES LTDA.,790.0,10.0,2000.0,620.0," 4314,000",2017-11-30,nan,1A,Fumigación,240331.0,85,85430
165,9MA,nan,EL DELIRIO,Arauca,Arauca,Aeródromo,6.9831,-70.882,CARMEN A. CABEZAS PEREZ,FUMIVILLA,800.0,10.0,3000.0,430.0," 5180,000",2012-11-26,2016-11-14,1A,Fumigación,704150.0,81,81001
353,CZU,CZU,LAS BRUJAS,Corozal,Sucre,Regional,9.3325,-75.2853,AEROCIVIL,EN CONCESION-SOACN(Sociedad Operadora de Aeropuertos Centro Norte,1430.0,22.0,nan,519.0," 1862,000",1988-07-25,nan,3C,Aerocivil,813666.0,70,70215
123,9CQ,nan,LOMA GRANDE - CA,Ayapel,Córdoba,Aeródromo,8.2937,-75.1176,O.V. OROZCO Y CIA. S.C.A.,EL MISMO,350.0,10.0,400.0,1280.0," 3341,000",2013-07-30,nan,UL,Privado,829737.0,23,23068
115,9CG,nan,SAN JOSE DEL ARIPORO,Paz de Ariporo,Casanare,Aeródromo,6.0475,-70.0128,MUNICIPIO,MUNICIPIO,570.0,15.0,2000.0,318.0," 4541,000",2007-10-27,2018-11-26,1A,Público,917463.0,85,85250
86,9AX,nan,SANTA CRUZ,Puerto López,Meta,Aeródromo,4.1318,-73.1814,JULIO STRAUCH D.,COMERCIALIZADORA ECO,650.0,10.0,2000.0,659.0," 2685,000",2018-12-30,nan,1A,Fumigación,261121.0,50,50573
149,9LK,nan,HATO VIEJO,Arauca,Arauca,Aeródromo,6.8964,-70.7791,COMERCIALIZADORA EL PROVEEDOR LTDA.,FUMIVILLA,750.0,10.0,2000.0,416.0," 2141,000",2015-11-16,nan,1A,Fumigación,566115.0,81,81001
848,VUP,VUP,ALFONSO LOPEZ PUMAREJO,Valledupar,Cesar,Nacional,10.4351,-73.2494,AEROCIVIL,AEROCIVIL -ORIENTE S.A.S.,2100.0,30.0,nan,450.0,"  352,000",1969-11-19,nan,4C,Aerocivil,963136.0,20,20001
245,AUR,nan,EL CORAJE,Ariguaní,Magdalena,Aeródromo,10.0247,-74.067,CAMAGUEY S.A.,CAMAGUEY S.A.,720.0,15.0,4000.0,282.0," 7094,000",2014-12-22,nan,1A,Privado,624652.0,47,47058
116,9CH,nan,COLINERAS,Paz de Ariporo,Casanare,Aeródromo,6.0713,-70.3678,MUNICIPIO,MUNICIPIO,410.0,15.0,2000.0,338.0," 4541,000",2014-10-27,2016-12-08,1A,Público,364845.0,85,85250
615,NVA,NVA,BENITO SALAS,Neiva,Huila,Internacional,2.9499,-75.2941,AEROCIVIL,AEROCIVIL,1600.0,40.0,nan,1464.0,"   57,000",1990-10-30,nan,3C,Aerocivil,433267.0,41,41001
213,AER,nan,AEROFLANDES - C.A.,Flandes,Tolima,Aeródromo,4.2171,-74.8454,AEROFLANDES,CLUB.ULTR-LA LIBELULA,240.0,10.0,500.0,1049.0," 1211,000",2015-06-28,2018-10-27,UL,Privado,680299.0,73,73275
169,9ME,nan,CACHIMBALITO - CA,Santander de Quilichao,Cauca,Aeródromo,3.1653,-76.4738,INCAUCA,INCAUCA.S.A. - ASOCAÑA,250.0,10.0,500.0,3241.0," 2956,000",2015-06-30,2016-10-30,1A,Fumigación,91841.0,19,19698
202,A02,nan,CAÑO COLORADO,Inírida,Guainía,Aeródromo,2.2774,-68.3599,GOBERNACION,GOBERNACION,1100.0,15.0,12202.0,413.0," 4419,000",2018-12-28,nan,1C,Público,61256.0,94,94001
172,9MI,nan,LA FORTUNA,Puerto López,Meta,Aeródromo,4.1028,-72.978,SAAC S.A.S,SAAC S.A.S,780.0,15.0,3000.0,690.0,nan,2016-08-15,2015-12-22,1A,Fumigación,506337.0,50,50573
4,7FX,nan,CAROLINA DEL PRINCIPE,Carolina,Antioquia,Aeródromo,6.7248,-75.2909,MUNICIPIO,MUNICIPIO,400.0,16.0,1000.0,6004.0," 6470,000",2015-11-26,nan,1A,Público,590135.0,5,5150
207,ACI,nan,EL MONASTERIO,Acacías,Meta,Aeródromo,3.9587,-73.4425,EFA LTDA.,EFA LTDA.,680.0,10.0,2000.0,948.0," 2634,000",2015-08-28,nan,1A,Fumigación,931565.0,50,50006
181,9MR,nan,LOS GANSOS,Cumaribo,Vichada,Aeródromo,4.6764,-70.9997,LOS GANSOS 1 S.A.S.,LOS GANSOS 1 S.AS.,900.0,40.0,2000.0,544.0," 7390,000",2012-12-30,nan,1A,Fumigación,787984.0,99,99773
819,TTM,TTM,TABLON DE TAMARA,Támara,Casanare,Aeródromo,5.7267,-72.1006,AEROCIVIL,AEROCIVIL,1317.0,30.0,12202.0,1650.0,"  644,000",1998-11-28,nan,2C,Aerocivil,187664.0,85,85400
216,AFI,AFI,EL RIO,Amalfi,Antioquia,Aeródromo,6.8954,-75.0475,AEROCIVIL,AEROCIVIL,970.0,20.0,3500.0,4831.0,"  551,000",1972-10-17,nan,2A,Aerocivil,980166.0,5,5031
180,9MQ,nan,EL RASTRO,Cumaribo,Vichada,Aeródromo,4.7022,-70.8617,EL RASTRO 1 S.A.S.,EL RASTRO  1 S.A.S,800.0,15.0,2000.0,545.0," 7391,000",2015-12-29,nan,1A,Fumigación,456819.0,99,99773
84,9AU,nan,LAS FURIAS,Nunchía,Casanare,Aeródromo,5.4039,-72.1228,MAURICIO CALA PEREZ,SFA LTDA.,800.0,10.0,2000.0,688.0," 5611,000",2014-10-14,2015-12-11,1A,Fumigación,45212.0,85,85225
570,MQU,MQU,JOSE CELESTINO,San Sebastián de Mariquita,Tolima,Regional,5.2126,-74.8837,AEROCIVIL,AEROCIVIL,1790.0,45.0,nan,1531.0,"   51,000",2011-01-28,nan,2A,Aerocivil,353329.0,73,73443
229,ALV,nan,EL DIAMANTE,Alvarado,Tolima,Aeródromo,4.5694,-74.9337,ELIAS ACOSTA Y CIA LTDA,CRUZ VERDE,620.0,10.0,2000.0,1312.0," 4728,000",2016-10-27,nan,1A,Fumigación,163494.0,73,73026
39,7HM,nan,LLANO CAUCHO,Cumaribo,Vichada,Aeródromo,4.4355,-70.6954,AGROINDUSTRIALES DEL ORIENTE,AGROINVERSIONES DEL ORIENTE S.A.S,900.0,15.0,12000.0,434.0," 5189,000",2014-12-30,nan,1A,Privado,918033.0,99,99773
179,9MP,nan,LOS LOBOS,Tauramena,Casanare,Aeródromo,4.4748,-72.7478,AGROVIMART S.A.,AGIL LTDA.,800.0,10.0,3000.0,580.0," 1685,000",2015-11-27,2018-09-22,1A,Fumigación,988981.0,85,85410
16,7GK,nan,LAS VIOLETAS- CA,Castilla la Nueva,Meta,Aeródromo,3.8519,-73.7286,FRANCELINA CADENA,AEROCLUB DEL META,350.0,10.0,500.0,609.0," 4132,000",2017-09-24,nan,UL,Privado,420744.0,50,50150
371,EJA,EJA,YARIGUIES,Barrancabermeja,Santander,Nacional,7.0244,-73.8068,AEROCIVIL,AEROCIVIL -ORIENTE S.A.S.,1800.0,45.0,61100.0,414.0,"  115,000",1974-12-18,nan,3C,Aerocivil,1033304.0,68,68081
2,7FU,nan,LA ESCONDIDA,Puerto Gaitán,Meta,Aeródromo,4.6108,-71.1935,PALMAS SICARARE S.A.S.,COSARGO S.A.S.,1300.0,18.0,5000.0,564.0," 1843,000",2013-04-26,2016-05-07,1A,Fumigación,30.0,50,50568
3,7FW,nan,MORICHITO,Hato Corozal,Casanare,Aeródromo,5.9188,-71.7932,CARMEN NARANJO,ROBERTO C. RIAÑO P.,800.0,15.0,3500.0,720.0," 2220,000",2009-05-07,nan,1A,Privado,nan,85,85125
4,7FX,nan,CAROLINA DEL PRINCIPE,Carolina,Antioquia,Aeródromo,6.7248,-75.2909,MUNICIPIO,MUNICIPIO,400.0,16.0,1000.0,6004.0," 6470,000",2013-11-19,nan,1A,Público,nan,5,5150
5,7FY,nan,DUBAI,Ayapel,Córdoba,Aeródromo,8.296,-75.0307,ANDRES D. LONDOÑO T.,ANDRES D. LONDOÑO T.,350.0,10.0,500.0,82.0," 1212,000",2013-03-20,nan,1A,Privado,nan,23,23068
7,7GA,nan,BARU - HIDROPUERTO,Cartagena de Indias,Bolívar,Aeródromo,10.2321,-75.5877,MAURICIO E. VASQUEZ M.,EL MISMO,450.0,20.0,500.0,0.0," 6067,000",2012-10-25,2015-11-07,1A,Privado,nan,13,13001
8,7GB,nan,LA CAROLINA,El Paso,Cesar,Aeródromo,9.528,-73.7866,JORGE AGUDELO RESTREPO,JORGE AGUDELO REST.,350.0,10.0,500.0,690.0," 5474,000",2009-10-06,nan,UL,Privado,nan,20,20250
9,7GC,nan,SAN FELIPE DEL PAUTO,Trinidad,Casanare,Aeródromo,5.2032,-70.8951,AGRAS S.A.S,AGRAS S.A.S,720.0,10.0,3000.0,3125.0," 4505,000",2012-08-16,nan,1A,Privado,153.0,85,85430
10,7GD,nan,VELASQUEZ,Puerto Boyacá,Boyacá,Aeródromo,5.9482,-74.4575,FAC,MANSAROVAR,1500.0,18.0,10000.0,617.0," 2135,000",2013-05-16,nan,3C,Privado,2325.0,15,15572
12,7GF,nan,LA UNION,Paz de Ariporo,Casanare,Aeródromo,5.6283,-70.7032,MARTHA Y. VARGAS DE R.,GEOPARK CUERVA,640.0,18.0,3500.0,335.0," 2136,000",2013-05-16,nan,1A,Privado,1122.0,85,85250
13,7GG,nan,LA ILUSION,Maní,Casanare,Aeródromo,4.5805,-72.4282,SIGRA S.A.,SIGRA S.A.,890.0,18.0,3500.0,574.0," 1944,000",2013-05-03,2016-05-10,1A,Privado,2.0,85,85139
14,7GH,nan,LA VENTUROSA,Puerto Carreño,Vichada,Aeródromo,6.1391,-68.7779,MUNICIPIO,GOBERNACION,1000.0,12.0,9500.0,246.0," 6782,000",2013-12-05,nan,1A,Público,54.0,99,99001
15,7GI,nan,GUAYABAL DEL CRAVO,Orocué,Casanare,Aeródromo,4.7223,-71.5943,KLAUS PUTH ARANGUREN,KLAUS PUTH ARANGUREN,750.0,12.0,2500.0,442.0," 3710,000",2013-07-24,2016-08-01,1A,Privado,1.0,85,85230
16,7GK,nan,LAS VIOLETAS- CA,Castilla la Nueva,Meta,Aeródromo,3.8519,-73.7286,FRANCELINA CADENA,AEROCLUB DEL META,350.0,10.0,500.0,609.0," 4132,000",2010-08-19,nan,UL,Privado,nan,50,50150
18,7GN,nan,LOS MANGOS,Ayapel,Córdoba,Aeródromo,8.2956,-75.0987,MANUEL LOPEZ ORTEGA,MANUEL LOPEZ ORTEGA,200.0,10.0,500.0,90.0," 5190,000",2013-09-24,nan,UL,Privado,nan,23,23068
28,7HA,nan,EL CONDOR,Flandes,Tolima,Aeródromo,4.2595,-74.8308,AEROTURBO DE COLOMBIA,LUIS FDO. BARRETO CAVIEDES,280.0,10.0,500.0,992.0," 5730,000",2012-10-09,2015-12-03,UL,Privado,nan,73,73275
29,7HB,nan,HOTEL SAN DIEGO,Puerto Gaitán,Meta,Aeródromo,3.7693,-71.8179,MADYGAN S.A.S.,MADYGAN S.A.S.,800.0,18.0,4000.0,725.0," 6730,000",2012-11-26,2015-12-03,2A,Privado,92.0,50,50568
30,7HC,nan,EL CAFUCHE,La Primavera,Vichada,Aeródromo,5.3152,-70.0184,ANDRES CARVAJAL MOLINA,ANDRES CARVAJAL MOLINA,850.0,18.0,4000.0,384.0," 3826,000",2013-07-30,2016-08-01,1A,Privado,1.0,99,99524
32,7HE,nan,GUACHARACAS (COLOMBAIMA),Beltrán,Cundinamarca,Aeródromo,4.7371,-74.8021,EMPRESA GUACHARACAS,CCA. LTDA,700.0,10.0,3000.0,797.0," 5920,000",2012-10-19,nan,1A,Privado,1.0,25,25086
33,7HF,nan,GAVILAN DE LA PASCUA,La Primavera,Vichada,Aeródromo,5.1166,-70.3806,RESGUARDO INDIGENA ORIPGA,RES. INDIGENA ORIPGA,1200.0,15.0,3500.0,419.0," 7257,000",2012-12-20,nan,1A,Público,85.0,99,99524
34,7HG,nan,DOROTEA B1,Paz de Ariporo,Casanare,Aeródromo,5.5122,-71.0248,NEW GRANADA ENERGY,NEW GRANADA ENERGY,1000.0,18.0,nan,404.0," 2362,000",2013-05-27,nan,2A,Privado,1029.0,85,85250
35,7HH,nan,HORIZONTES,Piedecuesta,Santander,Aeródromo,7.0017,-73.1037,DESARROLLOS METROPOLITANOS,DESARROLLOS METROPOLITANOS,610.0,12.0,3500.0,4195.0," 5186,000",2013-09-24,nan,1A,Privado,nan,68,68547
36,7HJ,nan,MACOLLA,Maní,Casanare,Aeródromo,4.7713,-72.0714,GRAMERCY S.A.S.,AGROPECUARIA CACOLLA S.A.S.,950.0,18.0,5000.0,548.0," 2134,000",2013-05-16,nan,1A,Privado,12.0,85,85139
37,7HK,nan,MULETOS- CA,Maní,Casanare,Aeródromo,4.5549,-72.1753,MULETOS S.A.S.,MULETOS S.A.S.,350.0,10.0,500.0,790.0," 2142,000",2013-05-16,nan,UL,Privado,nan,85,85139
38,7HL,nan,LA MAPORA,Pore,Casanare,Aeródromo,5.6459,-71.9887,PAULA ANDREA CANO A.,PAULA ANDREA CANO,350.0,10.0,500.0,497.0," 2199,000",2013-05-17,nan,1A,Privado,nan,85,85263
39,7HM,nan,LLANO CAUCHO,Cumaribo,Vichada,Aeródromo,4.4355,-70.6954,AGROINDUSTRIALES DEL ORIENTE,AGROINVERSIONES DEL ORIENTE S.A.S,900.0,15.0,12000.0,434.0," 5189,000",2013-09-24,nan,1A,Privado,10.0,99,99773
40,7HN,nan,ARMENIA,Paz de Ariporo,Casanare,Aeródromo,5.787,-70.1835,LUIS JOSE CALA LOPEZ,LUIS JOSE CALA LOPEZ,800.0,15.0,3000.0,380.0," 4734,000",2013-09-06,nan,1A,Privado,nan,85,85250
43,7HR,nan,RANCHO COLIBRI - CA,Roldanillo,Valle del Cauca,Aeródromo,4.4586,-76.1258,HENRY D. F. ORTIZ SILVA,HENRY D. F. ORTIZ SILVA,215.0,10.0,500.0,3083.0," 7091,000",2013-12-19,2017-01-09,1A,Privado,nan,76,76622
62,7NP,nan,EL CAIRANO,Santa Catalina,Bolívar,Aeródromo,10.7124,-75.2649,CARLOS E. GUERRERO,ENRIQUE MORALES NUÑEZ,215.0,10.0,400.0,30.0,"  998,000",2012-03-01,nan,UL,Privado,nan,13,13673
64,7NR,nan,NUEVA ROMA,Plato,Magdalena,Aeródromo,9.968,-74.3303,JORGE SOLANO RECIO,JORGE SOLANO RECIO,550.0,10.0,3000.0,462.0," 4503,000",2012-08-16,nan,1A,Privado,1.0,47,47555
65,7NS,nan,JAGUAR,Puerto Gaitán,Meta,Aeródromo,4.2161,-72.0275,CEPCOLSA,CEPCOLSA,1200.0,23.0,nan,650.0," 4940,000",2012-09-06,2015-10-10,2B,Privado,980.0,50,50568
66,7NT,nan,OCELOTE,Puerto Gaitán,Meta,Aeródromo,4.2751,-71.6123,HOCOL S.A.,HOCOL S.A.,1200.0,20.0,nan,690.0," 5922,000",2012-10-19,nan,2B,Privado,1159.0,50,50568
69,9AB,nan,GETSEMANI,Hato Corozal,Casanare,Aeródromo,6.1506,-70.0294,MUNICIPIO,MUNICIPIO,800.0,14.0,2000.0,304.0," 2220,000",2004-06-10,nan,1A,Público,112.0,85,85125
71,9AD,nan,URACA - CA.,Puerto Colombia,Atlántico,Aeródromo,11.0062,-74.9224,NORA CARVAJALINO,ALAS DEL CARIBE,320.0,10.0,800.0,204.0," 5624,000",2013-10-11,2016-11-12,UL,Privado,nan,8,8573
73,9AH,nan,SAN ROQUE  - CA.,San Pedro,Valle del Cauca,Aeródromo,4.0039,-76.2209,IRMA HERNANDEZ DE M.,JAKOB OLIVIER,235.0,10.0,400.0,3366.0," 5622,000",2013-10-11,nan,UL,Privado,nan,76,76670
75,9AJ,nan,SAN LUIS DE PACA,Mitú,Vaupés,Aeródromo,0.8744,-70.3464,RESGUARDO INDIGENA,GOBERNACION DEL VAUPES,424.0,10.0,1650.0,590.0," 3423,000",1997-09-16,nan,1A,Público,78.0,97,97001
76,9AK,nan,CANANARI,Mitú,Vaupés,Aeródromo,0.545,-70.9286,RESGUARDO INDIGENA,GOBERNACION DEL VAUPES,420.0,20.0,1650.0,780.0," 3423,000",1997-09-16,nan,1A,Público,126.0,97,97001
79,9AN,nan,MARAREY,Orocué,Casanare,Aeródromo,4.8281,-71.0808,JULIAN VALENCIA I. Y OTROS,JULIAN VALENCIA I. Y OTROS,700.0,15.0,4800.0,498.0," 2001,000",2013-05-08,2016-05-09,1A,Privado,226.0,85,85230
80,9AO,nan,SANTA CLARA,Sabanalarga,Casanare,Aeródromo,4.4172,-72.7744,ARMANDO SANCHEZ M.,TAES LTDA.,800.0,10.0,2500.0,610.0," 2137,000",2013-05-16,nan,1A,Fumigación,23.0,85,85300
81,9AR,nan,SAN PABLO,Mitú,Vaupés,Aeródromo,-0.7831,-70.3228,RESGUARDO INDIGENA,GOBERNACION DEL VAUPES,510.0,10.0,1650.0,550.0," 3423,000",1997-09-16,nan,1A,Público,86.0,97,97001
83,9AT,nan,COROCITO,Puerto López,Meta,Aeródromo,3.9507,-72.2186,AGROINVERSIONES COROCITO,AGROINVERSIONES COROCITO,980.0,10.0,3000.0,544.0," 1838,000",2013-04-26,nan,1A,Privado,7.0,50,50573
84,9AU,nan,LAS FURIAS,Nunchía,Casanare,Aeródromo,5.4039,-72.1228,MAURICIO CALA PEREZ,SFA LTDA.,800.0,10.0,2000.0,688.0," 5611,000",2012-10-04,2015-10-09,1A,Fumigación,nan,85,85225
85,9AV,nan,EL NOGAL,Villavicencio,Meta,Aeródromo,3.9883,-73.2994,GLORIA L.TIUSO,AEROTEC LTDA.,610.0,10.0,2000.0,817.0," 4739,000",2012-08-29,nan,1A,Fumigación,nan,50,50001
86,9AX,nan,SANTA CRUZ,Puerto López,Meta,Aeródromo,4.1318,-73.1814,JULIO STRAUCH D.,COMERCIALIZADORA ECO,650.0,10.0,2000.0,659.0," 2685,000",2011-05-25,nan,1A,Fumigación,nan,50,50573
88,9BA,nan,CURUMANI,Curumaní,Cesar,Aeródromo,9.2222,-73.5722,MUNICIPIO,FADELCE,900.0,23.0,2000.0,164.0," 2989,000",2008-07-02,nan,2A,Fumigación,nan,20,20228
89,9BB,nan,SAN MIGUEL,Puerto López,Meta,Aeródromo,4.1069,-72.89,ELIZABETH CRUZ BULLA,SAAC S.A.S,670.0,10.0,2000.0,803.0,"  251,000",2012-02-01,2015-02-09,1A,Fumigación,105.0,50,50573
90,9BC,nan,CANTADELICIAS,Alpujarra,Tolima,Aeródromo,3.3873,-74.9338,MUNICIPIO,MUNICIPIO,700.0,15.0,12200.0,4213.0," 4541,000",2005-10-13,nan,1A,Público,nan,73,73024
92,9BE,nan,LAS VEGAS,Paz de Ariporo,Casanare,Aeródromo,6.0072,-71.2842,ALEIDA JERONIMO NAVAS,ALEIDA JERONIMO NAVAS,740.0,15.0,3500.0,430.0," 1657,000",2012-04-03,nan,1A,Privado,15.0,85,85250
93,9BF,nan,LA FRANCIA,El Paso,Cesar,Aeródromo,9.6394,-73.5282,SOCIEDAD COLOMBIAN NATURAL RESOURCES,EL MISMO,1100.0,18.0,nan,213.0,"  962,000",2011-03-02,nan,1B,Privado,149.0,20,20250
96,9BI,nan,SAN FELIPE,Orocué,Casanare,Aeródromo,5.1037,-71.8425,MARIA LUCILA REYES ORDOÑEZ,MARIA LUCILA REYES O.,700.0,14.0,2000.0,554.0,"  800,000",2010-02-18,nan,1A,Privado,10.0,85,85230
97,9BK,nan,JULIAN,Cabuyaro,Meta,Aeródromo,4.2711,-72.9869,HERNANDO JIMENEZ,ASAM LTDA,800.0,10.0,2500.0,735.0," 3181,000",2009-06-24,2012-07-06,1A,Fumigación,nan,50,50124
98,9BL,nan,LOS HALCONES,Bugalagrande,Valle del Cauca,Aeródromo,3.9178,-76.3206,DIEGO TORRES NUÑEZ,DIEGO TORRES NUÑEZ,350.0,10.0,500.0,3232.0," 6678,000",2012-11-22,2016-01-04,1A,Privado,10.0,76,76113
99,9BN,nan,EL SOÑADOR,Aguazul,Casanare,Aeródromo,5.2299,-72.4528,GLORIA M. ALVIRA R.,CELTA LTDA.,700.0,14.0,2000.0,865.0,"  304,000",2010-01-27,2013-02-09,1A,Fumigación,nan,85,85010
101,9BP,nan,EL CONCHAL - CA,El Cerrito,Valle del Cauca,Aeródromo,3.7273,-76.3902,ARMANDO ARAGON NAVIA,ARMANDO ARAGON NAVIA,200.0,10.0,400.0,3139.0,"  326,000",2013-02-07,2016-04-01,1A,Privado,nan,76,76248
102,9BR,nan,SEVILLA,Hato Corozal,Casanare,Aeródromo,5.9234,-71.7139,HELI CALA LOPEZ,HELI CALA LOPEZ,700.0,15.0,3000.0,682.0," 4729,000",2013-09-06,nan,1A,Privado,nan,85,85125
104,9BT,nan,ASA SAN MARTIN,Riohacha,La Guajira,Aeródromo,11.2889,-73.1756,ASA S EN C,ASA S. EN C.,830.0,15.0,4500.0,49.0," 5612,000",2012-10-04,nan,1A,Fumigación,nan,44,44001
105,9BW,nan,LA FAZENDA,Puerto López,Meta,Aeródromo,4.3263,-72.2208,ALIAR S.A.,ALIAR S.A.,1200.0,12.0,5000.0,568.0," 1941,000",2013-05-03,2016-05-07,2B,Fumigación,42.0,50,50573
106,9BX,nan,LA ESTRELLA-CA.,San Martín,Meta,Aeródromo,3.4802,-73.3276,CLUB LA LIBELULA,CLUB LA LIBELULA,300.0,75.0,500.0,787.0,"  679,000",2011-02-15,nan,UL,Privado,nan,50,50689
109,9CA,nan,LAS AGUILAS -CA,Yumbo,Valle del Cauca,Aeródromo,3.5134,-76.4931,SERESTEL S.A.,CLUB DEPORT.LAS AGUILAS,320.0,10.0,500.0,3100.0," 4939,000",2012-09-06,nan,1A,Privado,nan,76,76892
110,9CB,nan,CAMARUCOS,Paz de Ariporo,Casanare,Aeródromo,5.8754,-70.6583,ALCALDIA,ALCALDIA,1200.0,15.0,2000.0,367.0," 4541,000",2006-10-27,2016-11-07,1A,Público,5.0,85,85250
111,9CC,nan,EL TOTUMO,Paz de Ariporo,Casanare,Aeródromo,5.9387,-71.2217,MUNICIPIO,MUNICIPIO,520.0,15.0,2000.0,476.0," 4541,000",2006-10-27,2016-11-07,1A,Público,8.0,85,85250
112,9CD,nan,VARSOVIA,Paz de Ariporo,Casanare,Aeródromo,5.849,-70.3648,MUNICIPIO,MUNICIPIO,550.0,15.0,2000.0,328.0," 4541,000",2006-10-27,2016-11-07,1A,Público,47.0,85,85250
113,9CE,nan,LA HERMOSA,Paz de Ariporo,Casanare,Aeródromo,5.5307,-70.4497,MUNICIPIO,MUNICIPIO,884.0,15.0,2000.0,338.0," 4541,000",2006-10-27,2016-11-07,1A,Público,119.0,85,85250
114,9CF,nan,SAN ESTEBAN,Paz de Ariporo,Casanare,Aeródromo,5.4441,-70.8352,MUNICIPIO,MUNICIPIO,580.0,15.0,2000.0,377.0," 4541,000",2006-10-27,2016-11-07,1A,Público,5.0,85,85250
115,9CG,nan,SAN JOSE DEL ARIPORO,Paz de Ariporo,Casanare,Aeródromo,6.0475,-70.0128,MUNICIPIO,MUNICIPIO,570.0,15.0,2000.0,318.0," 4541,000",2006-10-27,2016-11-07,1A,Público,146.0,85,85250
116,9CH,nan,COLINERAS,Paz de Ariporo,Casanare,Aeródromo,6.0713,-70.3678,MUNICIPIO,MUNICIPIO,410.0,15.0,2000.0,338.0," 4541,000",2006-10-27,2016-11-07,1A,Público,1.0,85,85250
117,9CI,nan,LA CAIMANA,Paz de Ariporo,Casanare,Aeródromo,6.052,-70.8134,MUNICIPIO,MUNICIPIO,615.0,15.0,2000.0,400.0," 4541,000",2006-10-27,2016-11-07,1A,Público,11.0,85,85250
118,9CJ,nan,EMAUS,San Luis de Palenque,Casanare,Aeródromo,5.1483,-71.0453,LUIS F. CASTILLO SANTOS,LUIS F. CASTILLO SANTOS,740.0,10.0,2500.0,430.0," 1945,000",2013-05-03,nan,1A,Privado,41.0,85,85325
119,9CK,nan,SANTA MARIA DEL CAFÉ,Hato Corozal,Casanare,Aeródromo,6.1111,-70.9888,MUNICIPIO,EL MISMO,510.0,15.0,2000.0,427.0," 4543,000",2006-10-27,nan,1A,Público,nan,85,85125
120,9CL,nan,LA VENTUROSA,San Luis de Palenque,Casanare,Aeródromo,5.2388,-71.3035,MUNICIPIO,EL MISMO,620.0,15.0,2000.0,459.0," 4542,000",2006-10-27,nan,1A,Público,1.0,85,85325
121,9CM,nan,MIRAMAR DE GUANAPALO,San Luis de Palenque,Casanare,Aeródromo,5.0541,-71.0012,MUNICIPIO,EL MISMO,425.0,15.0,2000.0,394.0," 4542,000",2006-10-27,nan,1A,Público,1.0,85,85325
122,9CP,nan,LA SALVACION,Paz de Ariporo,Casanare,Aeródromo,5.9988,-70.6316,ALCALDIA,ALCALDIA,700.0,15.0,2000.0,384.0," 4807,000",2006-11-14,nan,1A,Público,nan,85,85250
123,9CQ,nan,LOMA GRANDE - CA,Ayapel,Córdoba,Aeródromo,8.2937,-75.1176,O.V. OROZCO Y CIA. S.C.A.,EL MISMO,350.0,10.0,400.0,1280.0," 3341,000",2010-06-30,nan,UL,Privado,nan,23,23068
124,9CR,nan,EL CAPRICHO,Puerto Gaitán,Meta,Aeródromo,4.2018,-72.1632,JORGE E. SALAZAR B.,EL MISMO,700.0,18.0,4500.0,551.0,"  329,000",2013-02-07,2016-04-05,1A,Privado,1.0,50,50568
125,9CU,nan,COROCORA,Trinidad,Casanare,Aeródromo,5.3751,-70.969,DORA AVELLA VDA.DE PAN,PERENCO COLOMBIA LIMITED,740.0,18.0,5000.0,430.0," 1000,000",2012-03-01,nan,1A,Privado,2486.0,85,85430
128,9CZ,nan,GRISMANIA,Aguazul,Casanare,Aeródromo,4.989,-72.5099,LUZ MARINA VARGAS,SFA LTDA.,900.0,10.0,2000.0,669.0," 6670,000",2010-12-07,nan,1A,Fumigación,1.0,85,85010
130,9DB,nan,PALMAS DE TUMACO  -CA,San Andrés de Tumaco,Nariño,Aeródromo,1.496,-78.765,PALMAS DE TUMACO S.A.,PALMAS DE TUMACO S.A.,225.0,10.0,500.0,136.0," 1897,000",2011-04-11,2014-06-08,UL,Privado,1.0,52,52835
131,9DC,nan,INGENIO LA CARMELITA,Riofrío,Valle del Cauca,Aeródromo,4.0727,-76.316,SOCIEDAD GARRIDO,ING. LA CARMELITA,300.0,10.0,500.0,3087.0," 2961,000",2013-06-20,2015-08-05,1A,Fumigación,nan,76,76616
134,9DG,nan,EL LAGO - CA,Piedras,Tolima,Aeródromo,4.5575,-74.9003,BERNEY RODRIGUEZ,OSMANI RODRIGUEZ CARDOZO,350.0,10.0,500.0,1050.0," 6744,000",2010-12-13,nan,UL,Privado,nan,73,73547
135,9DH,nan,HACIENDA LA JOYA,Córdoba,Bolívar,Aeródromo,9.6179,-74.8367,TRIPENTA S.A.,AGROTEMPO LTDA.,720.0,10.0,2000.0,82.0,"    9,000",2013-01-03,2016-01-09,1A,Privado,nan,13,13212
136,9DI,nan,SAN FELIPE,San Felipe,Guainía,Aeródromo,1.915,-67.0776,GOBERNACION,GOBERNACION,1100.0,22.0,25000.0,312.0,"  545,000",2008-02-13,nan,1A,Público,89.0,94,94883
139,9DL,nan,LA PASTORA,Arauca,Arauca,Aeródromo,6.798,-70.9777,SAO E.U,SAO E.U.,740.0,10.0,2000.0,600.0," 2139,000",2013-05-16,nan,1A,Fumigación,nan,81,81001
142,9DO,nan,TALANQUERA,Puerto López,Meta,Aeródromo,4.141,-73.032,FERNANDO TOVAR TAMAYO,COMERCIALIZADORA ECO,740.0,10.0,2000.0,179.0," 6016,000",2012-10-23,nan,1A,Fumigación,nan,50,50573
145,9LG,nan,VILLA GEORGINA,Tauramena,Casanare,Aeródromo,4.3625,-74.3214,SANTIAGO PULIDO NIÑO,COMERCIALIZAD. ECO,710.0,10.0,2000.0,594.0,nan,2012-10-16,nan,1A,Fumigación,nan,85,85410
146,9LH,nan,INGENIO PICHICHI,Guacarí,Valle del Cauca,Aeródromo,3.5347,-76.1653,INGENIO PICHICHI S.A.,INGENIO PICHICHI,340.0,10.0,500.0,3215.0," 2951,000",2013-06-20,2015-08-05,1A,Fumigación,nan,76,76318
147,9LI,nan,SAN SEBASTIAN,Cabuyaro,Meta,Aeródromo,4.3356,-72.7803,NELLY ZARATE,AEROTEC LTDA.,740.0,10.0,2000.0,680.0," 4738,000",2012-08-20,nan,1A,Fumigación,30.0,50,50124
148,9LJ,nan,EL COROZO,Arauca,Arauca,Aeródromo,6.9136,-70.8562,NEBIO ECHEVERRY,FUMIVILLA,750.0,10.0,2000.0,416.0," 2141,000",2013-05-16,nan,1A,Fumigación,nan,81,81001
149,9LK,nan,HATO VIEJO,Arauca,Arauca,Aeródromo,6.8964,-70.7791,COMERCIALIZADORA EL PROVEEDOR LTDA.,FUMIVILLA,750.0,10.0,2000.0,416.0," 2141,000",2013-05-16,nan,1A,Fumigación,nan,81,81001
152,9LN,nan,GUADUALITO,Nunchía,Casanare,Aeródromo,5.4593,-71.912,CUPERTINO CUEVAS D.,SANAR S.A.,700.0,10.0,3000.0,639.0," 4943,000",2012-09-06,nan,1A,Fumigación,nan,85,85225
153,9LP,nan,LA REDENCION,Pore,Casanare,Aeródromo,5.6618,-71.8088,MARIA DEL S. MONTOYA,FRANCISCO H. MARTINEZ,750.0,10.0,2000.0,636.0," 3053,000",2013-06-26,nan,1A,Privado,nan,85,85263
154,9LQ,nan,LA PONDEROSA,Puerto Gaitán,Meta,Aeródromo,4.6316,-71.2141,MONICA COLOMBIA LTDA.,MONICA COLOMBIA LTDA,1200.0,18.0,3000.0,537.0," 5243,000",2012-09-19,nan,2A,Privado,25.0,50,50568
155,9LR,nan,LOS REMANSOS,Cimitarra,Santander,Aeródromo,6.5729,-74.2195,NELLY VALENCIA,AEROPENORT LTDA.,700.0,10.0,3000.0,357.0," 4373,000",2009-08-21,2012-10-08,1A,Fumigación,nan,68,68190
156,9LS,nan,SAN LUIS,La Esperanza,Norte de Santander,Aeródromo,7.6382,-73.4381,CRIAGAN S.A.,AEROPENORT LTDA.,770.0,10.0,2000.0,308.0," 7389,000",2012-12-28,2016-02-12,1A,Fumigación,nan,54,54385
157,9LT,nan,LOS GAVANES (LA MATA),Arauca,Arauca,Aeródromo,7.0093,-70.7743,FUMIGAR,FUMIVILLA,760.0,12.0,3000.0,416.0," 2141,000",2013-05-16,nan,1A,Fumigación,nan,81,81001
158,9LU,nan,EL RODEO,Tauramena,Casanare,Aeródromo,4.5772,-72.6914,JEREMIAS VACA RIAÑO,ASAM LTDA.,800.0,10.0,2000.0,746.0," 6069,000",2012-10-25,nan,1A,Fumigación,nan,85,85410
159,9LW,nan,EL PALMAR,Nunchía,Casanare,Aeródromo,5.396,-71.9116,MAURICIO MEDINA NIÑO,FIBA S.A.,700.0,10.0,3000.0,629.0,"  472,000",2013-02-13,nan,1A,Fumigación,5.0,85,85225
160,9LX,nan,LA GAITANA,Cabuyaro,Meta,Aeródromo,4.2253,-73.0298,P.VICENTE PERALES,FACOL LTDA.,800.0,10.0,4500.0,627.0," 1844,000",2013-04-26,nan,1A,Fumigación,nan,50,50124
161,9LY,nan,SAN ISIDRO II,Cumaral,Meta,Aeródromo,4.1585,-73.3408,MARIA A PACHE OCHOA,MARIA A. PACHECO O.,890.0,10.0,2000.0,175.0," 4730,000",2013-09-06,nan,1A,Fumigación,nan,50,50226
165,9MA,nan,EL DELIRIO,Arauca,Arauca,Aeródromo,6.9831,-70.882,CARMEN A. CABEZAS PEREZ,FUMIVILLA,800.0,10.0,3000.0,430.0," 5180,000",2011-09-20,2014-10-11,1A,Fumigación,nan,81,81001
167,9MC,nan,LA MONICA,Tauramena,Casanare,Aeródromo,4.6856,-72.6005,MAURICIO TORRES CUBIDES,ASAM LTDA.,840.0,10.0,2000.0,554.0," 4896,000",2011-09-06,nan,1A,Fumigación,nan,85,85410
168,9MD,nan,LA ABEJITA,Monterrey,Casanare,Aeródromo,5.0095,-72.3234,JOSE A. VARGAS P.,AGIL LTDA.,840.0,10.0,2000.0,682.0," 5479,000",2011-09-30,2014-11-09,1A,Fumigación,nan,85,85162
169,9ME,nan,CACHIMBALITO - CA,Santander de Quilichao,Cauca,Aeródromo,3.1653,-76.4738,INCAUCA,INCAUCA.S.A. - ASOCAÑA,250.0,10.0,500.0,3241.0," 2956,000",2013-06-20,2015-08-05,1A,Fumigación,nan,19,19698
170,9MG,nan,MADREVIEJA,Nunchía,Casanare,Aeródromo,5.4623,-71.9584,CELMIRA BARRAGAN F.,CELMIRA BARRAGAN F.,1000.0,10.0,2000.0,640.0," 4509,000",2012-08-16,nan,1A,Fumigación,nan,85,85225
171,9MH,nan,SAN JUAN,San Martín,Meta,Aeródromo,3.7017,-73.3774,RODOLFO MENDEZ,MARIA A. PACHECO O.,740.0,10.0,2000.0,870.0," 1840,000",2013-04-26,2016-05-03,1A,Fumigación,nan,50,50689
172,9MI,nan,LA FORTUNA,Puerto López,Meta,Aeródromo,4.1028,-72.978,SAAC S.A.S,SAAC S.A.S,780.0,15.0,3000.0,690.0,nan,2012-04-03,2012-07-03,1A,Fumigación,nan,50,50573
173,9MJ,nan,AGROFORESTAL MATA AZUL,Santa Rosalía,Vichada,Aeródromo,5.2897,-70.6337,nan,RIOPAILA CASTILLA S.A.,1200.0,20.0,6500.0,118.0," 1478,000",2012-03-23,nan,1A,Privado,nan,99,99624
174,9MK,nan,VILLA ISABELLA,Trinidad,Casanare,Aeródromo,5.2993,-71.3434,RAFAEL QUESADA,TAES LTDA.,800.0,10.0,2000.0,620.0," 4313,000",2012-08-08,nan,1A,Fumigación,nan,85,85430
175,9ML,nan,MIRADOR,Trinidad,Casanare,Aeródromo,5.4326,-71.6009,ANGELICA VEGA,TAES LTDA.,790.0,10.0,2000.0,620.0," 4314,000",2012-08-08,nan,1A,Fumigación,nan,85,85430
176,9MM,nan,EL CARIBE,Paz de Ariporo,Casanare,Aeródromo,5.7198,-71.4963,REGULO GAMA OJEDA,FARO LTDA.,800.0,10.0,2000.0,585.0," 1684,000",2013-04-18,2016-05-03,1A,Fumigación,nan,85,85250
177,9MN,nan,EL PEDRAL BONANZA,Puerto Wilches,Santander,Aeródromo,7.2417,-73.8151,nan,AEROPENORT LTDA.,800.0,10.0,3000.0,282.0,nan,2012-05-07,2012-08-07,1A,Fumigación,nan,68,68575
178,9MO,nan,SAN NICOLAS,Tauramena,Casanare,Aeródromo,4.4703,-72.4575,CARLOS E. CONTRERAS,ASAM LTDA.,840.0,10.0,2000.0,585.0," 4510,000",2012-08-16,nan,1A,Fumigación,nan,85,85410
179,9MP,nan,LOS LOBOS,Tauramena,Casanare,Aeródromo,4.4748,-72.7478,AGROVIMART S.A.,AGIL LTDA.,800.0,10.0,3000.0,580.0," 1685,000",2013-04-18,2016-05-03,1A,Fumigación,nan,85,85410
180,9MQ,nan,EL RASTRO,Cumaribo,Vichada,Aeródromo,4.7022,-70.8617,EL RASTRO 1 S.A.S.,EL RASTRO  1 S.A.S,800.0,15.0,2000.0,545.0," 7391,000",2012-12-28,nan,1A,Fumigación,nan,99,99773
181,9MR,nan,LOS GANSOS,Cumaribo,Vichada,Aeródromo,4.6764,-70.9997,LOS GANSOS 1 S.A.S.,LOS GANSOS 1 S.AS.,900.0,40.0,2000.0,544.0," 7390,000",2012-12-28,nan,1A,Fumigación,nan,99,99773
182,9MS,nan,BETANIA,Trinidad,Casanare,Aeródromo,5.5319,-71.6812,DIOSELINO ACOSTA,SAO E.U.,800.0,10.0,2000.0,2030.0," 1216,000",2013-03-20,nan,1A,Fumigación,1.0,85,85430
183,9MT,nan,AGUAS CLARAS,Sabana de Torres,Santander,Aeródromo,7.2731,-73.5626,EDGAR MEZA ORTIZ,EDGAR MEZA ORTIZ,800.0,10.0,2500.0,652.0," 1681,000",2013-04-18,nan,1A,Fumigación,nan,68,68655
185,9MW,nan,LAS NUBES,Puerto Gaitán,Meta,Aeródromo,4.2563,-71.7977,AGMO NUBES INVER.S.A.S,AGMO NUBES INVERSIONES,1000.0,18.0,4500.0,1030.0," 1942,000",2013-05-03,2016-05-08,1A,Fumigación,2.0,50,50568
201,A01,nan,CAMPO ALEGRE,Inírida,Guainía,Aeródromo,1.8653,-69.0101,GOBERNACION,GOBERNACION,450.0,15.0,2000.0,577.0," 1333,000",2013-03-26,nan,1A,Público,182.0,94,94001
202,A02,nan,CAÑO COLORADO,Inírida,Guainía,Aeródromo,2.2774,-68.3599,GOBERNACION,GOBERNACION,1100.0,15.0,12202.0,413.0," 4419,000",2013-08-23,nan,1C,Público,7.0,94,94001
203,A03,nan,FORTUL,Fortul,Arauca,Aeródromo,6.7817,-71.7791,GOBERNACION,MUNICIPIO,700.0,13.0,4000.0,730.0," 2036,000",2010-04-23,nan,1A,Público,2.0,81,81300
205,ABT,nan,AGUA BLANCA,Piedras,Tolima,Aeródromo,4.4656,-74.9948,SOCIEDAD CULTIVOS SAN JOSE,CRUZ VERDE,680.0,10.0,2000.0,1994.0," 4508,000",2012-08-18,2015-09-03,1A,Fumigación,17.0,73,73547
206,ACD,ACD,ALCIDES FERNANDEZ,Acandí,Chocó,Regional,8.4969,-77.2739,INCORA LTDA,MUNICIPIO,1200.0,16.0,nan,50.0," 1072,000",1969-09-15,nan,3A,Público,2564.0,27,27006
207,ACI,nan,EL MONASTERIO,Acacías,Meta,Aeródromo,3.9587,-73.4425,EFA LTDA.,EFA LTDA.,680.0,10.0,2000.0,948.0," 2634,000",2012-05-24,nan,1A,Fumigación,4.0,50,50006
208,ACL,ACL,AGUACLARA,Sabanalarga,Casanare,Aeródromo,4.7333,-73.0583,CORREGIMIENTO,CORREGIMIENTO,800.0,25.0,12202.0,1033.0," 3660,000",2007-08-14,nan,1C,Público,2.0,85,85300
209,ACP,nan,ACAPULCO,Nunchía,Casanare,Aeródromo,5.4086,-71.8694,YOLANDA CAMACHO V.,MARIA A. PACHECO OCHOA,870.0,10.0,2000.0,656.0," 4895,000",2011-09-06,2014-09-09,1A,Fumigación,nan,85,85225
210,ACR,ACR,ARARACUARA,Solano,Caquetá,Regional,-0.6008,-72.3981,GOBERNACION,GOBERNACION,1300.0,30.0,27000.0,800.0,"   31,000",1958-02-05,nan,3C,Público,1778.0,18,18756
212,ADZ,ADZ,GUSTAVO ROJAS PINILLA,San Andrés,San Andrés islas,Internacional,12.5837,-81.7113,AEROCIVIL,AEROCIVIL,2380.0,36.0,nan,18.0,"  352,000",1968-05-17,nan,4D,Aerocivil,76692.0,88,88001
213,AER,nan,AEROFLANDES - C.A.,Flandes,Tolima,Aeródromo,4.2171,-74.8454,AEROFLANDES,CLUB.ULTR-LA LIBELULA,240.0,10.0,500.0,1049.0," 1211,000",2013-03-20,2016-04-10,UL,Privado,nan,73,73275
216,AFI,AFI,EL RIO,Amalfi,Antioquia,Aeródromo,6.8954,-75.0475,AEROCIVIL,AEROCIVIL,970.0,20.0,3500.0,4831.0,"  551,000",1968-10-07,nan,2A,Aerocivil,258.0,5,5031
217,AGB,nan,AGUA BLANCA,Espinal,Tolima,Aeródromo,4.1839,-74.8931,FARCA S.A. - COMODATO,SANIDAD VEGETAL CRUZ,750.0,10.0,2000.0,1095.0," 7095,000",2013-12-19,nan,1A,Fumigación,4.0,73,73268
219,AGH,nan,HACARITAMA,Aguachica,Cesar,Aeródromo,8.2473,-73.5821,AEROCIVIL,AEROCIVIL,1310.0,25.0,12202.0,700.0," 9248,000",1987-07-27,nan,2C,Aerocivil,1245.0,20,20011
223,AGU,nan,MARIA ANGELICA,Aguazul,Casanare,Aeródromo,5.0546,-72.4471,GERMAN ERAZO,CELTA LTDA.,800.0,15.0,2000.0,720.0," 4736,000",2013-09-06,nan,1A,Fumigación,5.0,85,85010
229,ALV,nan,EL DIAMANTE,Alvarado,Tolima,Aeródromo,4.5694,-74.9337,ELIAS ACOSTA Y CIA LTDA,CRUZ VERDE,620.0,10.0,2000.0,1312.0," 4728,000",2013-09-06,nan,1A,Fumigación,2.0,73,73026
234,APO,APO,ANTONIO ROLDAN BETANCOURT,Carepa,Antioquia,Nacional,7.8118,-76.7164,AEROCIVIL,EN CONCESION- SOACN(Sociedad Operadora de Aeropuertos Centro Norte,2180.0,30.0,nan,46.0," 1590,000",1969-06-10,nan,4C,Aerocivil,40556.0,5,5147
240,ARO,ARO,ARBOLETES,Arboletes,Antioquia,Aeródromo,8.8394,-76.43,MUNICIPIO,MUNICIPIO,1100.0,10.0,6000.0,13.0," 4381,000",2002-09-04,nan,2B,Público,5.0,5,5051
241,ARQ,ARQ,EL TRONCAL,Arauquita,Arauca,Aeródromo,7.0211,-71.3889,AEROCIVIL,AEROCIVIL,960.0,12.0,12202.0,509.0," 1073,000",1969-09-15,nan,2C,Aerocivil,70.0,81,81065
243,ATC,nan,ATACO,Ataco,Tolima,Aeródromo,3.5837,-75.3891,MUNICIPIO,MUNICIPIO,800.0,15.0,4000.0,1519.0,"  156,000",1957-07-23,nan,2A,Público,1.0,73,73067
244,AUC,AUC,SANTIAGO PEREZ QUIROZ,Arauca,Arauca,Nacional,7.0689,-70.737,AEROCIVIL,AEROCIVIL,2100.0,30.0,nan,418.0,"  984,000",1987-02-02,nan,4C,Aerocivil,25923.0,81,81001
245,AUR,nan,EL CORAJE,Ariguaní,Magdalena,Aeródromo,10.0247,-74.067,CAMAGUEY S.A.,CAMAGUEY S.A.,720.0,15.0,4000.0,282.0," 7094,000",2013-12-19,nan,1A,Privado,30.0,47,47058
250,BAL,nan,INGENIO RISARALDA,Balboa,Risaralda,Aeródromo,4.8948,-75.9044,INGENIO RISARALDA,ING.RISARALDA-ASOCAÑA,250.0,10.0,500.0,3034.0," 2954,000",2013-06-20,2015-08-05,1A,Fumigación,nan,66,66075
251,BAN,nan,BANCO LARGO,Nunchía,Casanare,Aeródromo,5.4631,-72.0631,JAVIER CHINCHILLA MUNAR,SFA- LTDA,840.0,10.0,2000.0,692.0," 7056,000",2012-12-07,nan,1A,Fumigación,nan,85,85225
253,BAR,nan,GUAICARAMO,Barranca de Upía,Meta,Aeródromo,4.4605,-72.9509,GUAICARAMO S.A.,GUAICARAMO S.A.,800.0,18.0,5500.0,649.0," 7236,000",2013-12-27,nan,1A,Fumigación,17.0,50,50110
255,BBA,nan,PIZARRO,Bajo Baudó,Chocó,Aeródromo,4.9608,-77.3633,MUNICIPIO,MUNICIPIO,1000.0,10.0,nan,10.0," 6365,000",2008-12-30,nan,1A,Público,4944.0,27,27077
259,BEC,nan,BECERRIL,Becerril,Cesar,Aeródromo,9.6628,-73.2744,MUNICIPIO,FUMILLANOS,1300.0,27.0,3500.0,320.0," 2989,000",2008-07-02,nan,3B,Fumigación,51.0,20,20045
264,BIC,nan,BERASTEGUI,Ciénaga de Oro,Córdoba,Aeródromo,8.8845,-75.6835,AEROCIVIL,AEROCIVIL,1530.0,20.0,2000.0,48.0,"  984,000",1987-02-02,nan,0B,Aerocivil,1.0,23,23189
265,BIZ,nan,BIZERTA,Nunchía,Casanare,Aeródromo,5.4225,-71.9936,CELMIRA BARRAGAN F.,FUMIVILLA LTDA,700.0,10.0,2000.0,639.0,"  151,000",2013-01-25,nan,1A,Fumigación,1.0,85,85225
268,BMG,nan,BARRANCO MINAS,Barranco Minas,Guainía,Aeródromo,3.4907,-69.8097,GOBERNACION,DEPARTAMENTO,900.0,15.0,nan,125.0," 2477,000",1972-09-11,nan,1A,Público,3058.0,94,94343
270,BNI,nan,BOLUGA,Venadillo,Tolima,Aeródromo,4.6903,-74.8894,MARGOT URIBE DE SAMPER Y CIA,CRUZ VERDE,640.0,10.0,3000.0,1092.0," 2172,000",2012-04-30,nan,1A,Fumigación,nan,73,73861
271,BNO,nan,BUENOS AIRES,Puerto Wilches,Santander,Aeródromo,7.462,-73.7464,AGRICOLA BUFALERA DE COLOMBIA,EL MISMO,1060.0,18.0,3500.0,229.0," 7239,000",2012-12-19,nan,1A,Privado,26.0,68,68575
272,BNP,nan,BUENOS AIRES -FADELCE,Pailitas,Cesar,Aeródromo,9.02,-73.6725,FADELCE LTDA,FADELCE LTDA,840.0,15.0,2000.0,82.0,"   24,000",2009-01-07,2012-02-12,2A,Fumigación,2.0,20,20517
274,BOG,BOG,EL DORADO,"Bogotá, D.C.","Bogotá, D.C.",Internacional,4.7017,-74.1469,AEROCIVIL,EN CONCESION CODAD,3800.0,60.0,nan,8356.0,"  320,000",1959-12-04,nan,4E,Aerocivil,1028334.0,11,11001
278,BUN,BUN,BUENAVENTURA-GERARDO TOBAR LOPEZ,Buenaventura,Valle del Cauca,Nacional,3.8196,-76.9899,AEROCIVIL,AEROCIVIL,1200.0,30.0,nan,44.0," 1026,000",1967-08-28,nan,2C,Aerocivil,4776.0,76,76109
313,CIM,CIM,GUSTAVO ROJAS PINILLA,Cimitarra,Santander,Aeródromo,6.3674,-73.9706,AEROCIVIL,AEROCIVIL,1500.0,40.0,12202.0,735.0,"  644,000",1967-06-05,nan,3C,Aerocivil,338.0,68,68190
317,CLO,CLO,ALFONSO BONILLA ARAGON,Palmira,Valle del Cauca,Internacional,3.5431,-76.3817,AEROCIVIL,CONCESION AEROCALI S.A.,3000.0,45.0,nan,3174.0,"  984,000",1987-02-02,nan,4E,Aerocivil,207439.0,76,76520
324,COG,COG,CONDOTO MANDINGA,Condoto,Chocó,Regional,5.072,-76.6766,AEROCIVIL,AEROCIVIL,1150.0,18.0,nan,166.0,"  984,000",1987-02-02,nan,2C,Aerocivil,5130.0,27,27205
330,CPL,CPL,NAVAS PARDO,Chaparral,Tolima,Aeródromo,3.7238,-75.4654,AEROCIVIL,AEROCIVIL,1200.0,15.0,nan,2729.0,"  499,000",1968-07-20,nan,2C,Aerocivil,538.0,73,73168
340,CTG,CTG,RAFAEL NUÑEZ,Cartagena de Indias,Bolívar,Internacional,10.442,-75.5123,AEROCIVIL,CONCESION-SACSA,2380.0,45.0,nan,7.0," 4501,000",2012-08-16,nan,4D,Aerocivil,131998.0,13,13001
344,CUC,CUC,CAMILO DAZA,San José de Cúcuta,Norte de Santander,Internacional,7.9274,-72.5116,AEROCIVIL,AEROCIVIL -ORIENTE S.A.S.,1920.0,45.0,nan,1027.0,"  984,000",1987-02-02,nan,4D,Aerocivil,72216.0,54,54001
345,CUC,CUC,CAMILO DAZA No.2,San José de Cúcuta,Norte de Santander,Internacional,7.9274,-72.5116,AEROCIVIL,AEROCIVIL -ORIENTE S.A.S.,2320.0,45.0,nan,1027.0,"  984,000",1987-02-02,nan,4A,Aerocivil,nan,54,54001
353,CZU,CZU,LAS BRUJAS,Corozal,Sucre,Regional,9.3325,-75.2853,AEROCIVIL,EN CONCESION-SOACN(Sociedad Operadora de Aeropuertos Centro Norte,1430.0,22.0,nan,519.0," 1862,000",1971-07-19,nan,3C,Aerocivil,14822.0,70,70215
371,EJA,EJA,YARIGUIES,Barrancabermeja,Santander,Nacional,7.0244,-73.8068,AEROCIVIL,AEROCIVIL -ORIENTE S.A.S.,1800.0,45.0,61100.0,414.0,"  115,000",1965-09-02,nan,3C,Aerocivil,27366.0,68,68081
372,EJU,nan,EL JUNCAL,Palermo,Huila,Aeródromo,2.8471,-75.3133,ASOJUNCAL,SANIDAD VEGETAL CRUZ VERDE,620.0,10.0,2000.0,1509.0," 4949,000",2010-10-01,nan,1A,Fumigación,2.0,41,41524
374,ELB,ELB,LAS FLORES,El Banco,Magdalena,Aeródromo,9.0428,-73.9715,AEROCIVIL,AEROCIVIL,1225.0,28.0,19045.0,110.0," 1374,000",1978-04-06,nan,3B,Aerocivil,589.0,47,47245
397,EYP,EYP,EL ALCARAVAN,Yopal,Casanare,Nacional,5.3191,-72.3842,AEROCIVIL,AEROCIVIL,2250.0,30.0,nan,1016.0,"  984,000",1987-02-02,nan,3C,Aerocivil,92726.0,85,85001
401,FLA,FLA,GUSTAVO ARTUNDUAGA PAREDES,Florencia,Caquetá,Nacional,1.589,-75.5643,AEROCIVIL,AEROCIVIL,1500.0,30.0,nan,803.0,"  984,000",1987-02-02,nan,3C,Aerocivil,16997.0,18,18001
421,GPI,GPI,JUAN CASIANO,Guapí,Cauca,Regional,2.57,-77.898,AEROCIVIL,AEROCIVIL,1300.0,16.0,nan,164.0,"  245,000",1960-08-17,nan,3C,Aerocivil,7490.0,19,19318
431,GYM,nan,FLAMINIO S. CAMACHO,Chía,Cundinamarca,Aeródromo,4.8125,-74.0651,AEROCIVIL,AEROCIVIL,1720.0,20.0,7000.0,8386.0,"  984,000",1987-02-02,nan,2B,Aerocivil,4571.0,25,25175
443,HTZ,HTZ,HATO COROZAL,Hato Corozal,Casanare,Aeródromo,6.1535,-71.7616,AEROCIVIL,AEROCIVIL,1040.0,14.0,12202.0,830.0,"  502,000",1967-05-05,nan,2C,Aerocivil,195.0,85,85125
444,IBE,IBE,PERALES,Ibagué,Tolima,Nacional,4.4217,-75.1336,AEROCIVIL,AEROCIVIL,1800.0,30.0,nan,3114.0,"  984,000",1987-02-02,nan,3C,Aerocivil,36819.0,73,73001
446,IGO,IGO,JAIME ORTIZ BETANCUR,Chigorodó,Antioquia,Aeródromo,7.6772,-76.683,MUNICIPIO,MUNICIPIO,840.0,18.0,6400.0,170.0," 4545,000",2012-08-17,nan,1A,Público,250.0,5,5172
448,IPI,IPI,SAN LUIS,Aldana,Nariño,Internacional,0.8619,-77.6718,AEROCIVIL,AEROCIVIL,1770.0,28.0,nan,9740.0,"  455,000",1969-05-19,nan,3C,Aerocivil,4193.0,52,52022
548,MFS,MFS,MIRAFLORES,Miraflores,Guaviare,Aeródromo,1.3377,-71.9507,MUNICIPIO,MUNICIPIO,1320.0,25.0,25000.0,730.0,"   21,000",1957-01-30,nan,3B,Público,4188.0,95,95200
549,MGN,MGN,BARACOA,Magangué,Bolívar,Aeródromo,9.2849,-74.8465,AEROCIVIL,AEROCIVIL,1410.0,20.0,33112.0,195.0,"  352,000",1968-05-17,nan,2B,Aerocivil,560.0,13,13430
562,MMP,MVP,SAN BERNARDO,Mompós,Bolívar,Aeródromo,9.2583,-74.4383,AEROCIVIL,AEROCIVIL,1175.0,14.0,16300.0,72.0,"  352,000",1968-05-17,nan,2A,Aerocivil,924.0,13,13468
570,MQU,MQU,JOSE CELESTINO,San Sebastián de Mariquita,Tolima,Regional,5.2126,-74.8837,AEROCIVIL,AEROCIVIL,1790.0,45.0,nan,1531.0,"   51,000",1968-01-24,nan,2A,Aerocivil,1428.0,73,73443
579,MTB,MTB,EL PINDO,Montelíbano,Córdoba,Regional,7.9733,-75.4413,AEROCIVIL,AEROCIVIL,1100.0,26.0,12202.0,160.0," 3107,000",1981-04-08,nan,2C,Aerocivil,1863.0,23,23466
584,MTR,MTR,LOS GARZONES,Montería,Córdoba,Nacional,8.8239,-75.8261,AEROCIVIL,EN CONCESION-SOACN(Sociedad Operadora de Aeropuertos Centro Norte,1860.0,35.0,nan,19.0,"  984,000",1987-02-02,nan,4C,Aerocivil,70624.0,23,23001
594,MVP,MVP,FABIO A. LEON BENTLEY,Mitú,Vaupés,Regional,1.2535,-70.2341,MUNICIPIO,AEROCIVIL,1880.0,30.0,nan,680.0,"   34,000",1958-02-19,nan,3C,Aerocivil,35858.0,97,97001
607,NQU,NQU,REYES MURILLO,Nuquí,Chocó,Regional,5.712,-77.2627,AEROCIVIL,AEROCIVIL,930.0,10.0,nan,13.0,"    2,279",1975-08-21,nan,1A,Aerocivil,13940.0,27,27495
615,NVA,NVA,BENITO SALAS,Neiva,Huila,Internacional,2.9499,-75.2941,AEROCIVIL,AEROCIVIL,1600.0,40.0,nan,1464.0,"   57,000",1958-02-28,nan,3C,Aerocivil,65289.0,41,41001
620,OCV,OCV,AGUAS CLARAS,Ocaña,Norte de Santander,Regional,8.3156,-73.3583,AEROCIVIL,AEROCIVIL,1200.0,30.0,19000.0,3850.0," 2363,000",1971-09-03,nan,2C,Aerocivil,2566.0,54,54498
632,ORU,nan,EL MEDANO,Orocué,Casanare,Aeródromo,4.7621,-71.7184,ALBERTO MENDOZA Y OTRO,EL MISMO,885.0,15.0,4950.0,485.0,"  828,000",2007-02-27,nan,1A,Privado,6.0,85,85230
634,OTU,OTU,REMEDIOS OTU,Remedios,Antioquia,Regional,7.0106,-74.7156,AEROCIVIL,AEROCIVIL,950.0,12.0,nan,2058.0,"  522,000",1968-07-03,nan,1A,Aerocivil,8663.0,5,5604
646,PCR,PCR,GERMAN OLANO,Puerto Carreño,Vichada,Regional,6.185,-67.4925,MUNICIPIO,AEROCIVIL,1800.0,30.0,nan,1915.0,"  551,000",1968-07-10,nan,3C,Aerocivil,6271.0,99,99001
661,PIP,RON,PAIPA JUAN JOSE RONDON,Paipa,Boyacá,Aeródromo,5.7644,-73.1057,AEROCIVIL,AEROCIVIL,1700.0,30.0,11400.0,8205.0,"  984,000",1987-02-02,nan,3C,Aerocivil,154.0,15,15516
673,PLT,PLT,LAS FLORES,Plato,Magdalena,Aeródromo,9.7985,-74.7831,AEROCIVIL,AEROCIVIL,1067.0,20.0,3500.0,86.0,"  876,000",1968-03-08,nan,2A,Aerocivil,298.0,47,47555
678,PPN,PPN,GUILLERMO LEON VALENCIA,Popayán,Cauca,Nacional,2.4542,-76.6099,AEROCIVIL,AEROCIVIL,1910.0,40.0,nan,5669.0,"  455,000",1969-05-19,nan,4C,Aerocivil,17602.0,19,19001
692,PSO,PSO,ANTONIO NARIÑO,Pasto,Nariño,Nacional,1.3964,-77.291,AEROCIVIL,AEROCIVIL,2177.0,40.0,nan,5896.0,"   95,000",1957-04-24,nan,4C,Aerocivil,23045.0,52,52001
696,PTL,PTX,CONTADOR,Pitalito,Huila,Regional,1.8573,-76.0856,AEROCIVIL,AEROCIVIL,1500.0,19.0,nan,4221.0," 2090,000",1974-10-22,nan,2B,Aerocivil,1251.0,41,41551
699,PTW,nan,GEMELOS DORADOS,Puerto Wilches,Santander,Aeródromo,7.2466,-73.7723,MILTON A. SALAZAR REY,EL MISMO,850.0,15.0,5670.0,314.0," 6473,000",2013-11-19,2017-01-09,1A,Privado,242.0,68,68575
703,PUU,PUU,TRES DE MAYO,Puerto Asís,Putumayo,Nacional,0.5054,-76.5008,AEROCIVIL,AEROCIVIL,1485.0,25.0,33112.0,809.0,"  115,000",1965-09-02,nan,3C,Aerocivil,18730.0,86,86568
704,PVA,PVA,EL EMBRUJO,Providencia,San Andrés islas,Nacional,13.3572,-81.3579,AEROCIVIL,AEROCIVIL,1050.0,18.0,nan,10.0,"  338,000",1969-04-23,nan,2B,Aerocivil,23333.0,88,88564
708,PZA,PZA,PAZ DE ARIPORO,Paz de Ariporo,Casanare,Aeródromo,5.8819,-71.883,AEROCIVIL,AEROCIVIL,1506.0,20.0,29000.0,878.0," 1591,000",1972-06-06,nan,2B,Aerocivil,772.0,85,85250
713,RAV,RAV,CRAVO NORTE,Cravo Norte,Arauca,Aeródromo,6.3167,-70.2111,AEROCIVIL,AEROCIVIL,1122.0,18.0,12202.0,336.0,"  343,000",1968-05-03,nan,3C,Aerocivil,3504.0,81,81220
714,RCH,RCH,ALMIRANTE PADILLA,Riohacha,La Guajira,Internacional,11.5262,-72.9267,MUNICIPIO,AEROCIVIL -ORIENTE S.A.S.,1900.0,30.0,nan,43.0,"  187,000",1987-02-02,nan,4C,Aerocivil,6241.0,44,44001
718,RVE,RVE,COLONIZADORES,Arauca,Arauca,Regional,6.9504,-71.8562,ECOPETROL,AEROCIVIL,800.0,30.0,nan,678.0," 4158,000",1983-09-25,nan,3C,Aerocivil,6315.0,81,81001
761,SMR,SMR,SIMON BOLIVAR,Santa Marta,Magdalena,Internacional,11.1197,-74.2473,AEROCIVIL,AEROCIVIL -ORIENTE S.A.S.,1700.0,40.0,nan,22.0,"  352,000",1968-05-17,nan,3C,Aerocivil,45781.0,47,47001
768,SNR,nan,SAN MARTIN,San Martín,Meta,Regional,3.7023,-73.6881,AEROCIVIL,AEROCIVIL,700.0,15.0,3000.0,1380.0,"  644,000",1967-06-05,nan,1A,Aerocivil,181.0,50,50689
787,SVI,SVI,EDUARDO FALLA SOLANO,San Vicente del Caguán,Caquetá,Regional,2.1522,-74.7663,AEROCIVIL,AEROCIVIL,1500.0,26.0,nan,875.0,"  141,000",1987-02-02,nan,3C,Aerocivil,5161.0,18,18753
797,TCO,nan,LA FLORIDA,San Andrés de Tumaco,Nariño,Nacional,1.8144,-78.749,AEROCIVIL,AEROCIVIL,1600.0,30.0,nan,10.0,"  455,000",1969-05-19,nan,3C,Aerocivil,12101.0,52,52835
798,TDA,TDA,TRINIDAD,Trinidad,Casanare,Aeródromo,5.4349,-71.6584,AEROCIVIL,AEROCIVIL,1148.0,10.0,12202.0,560.0,"  644,000",1967-06-05,nan,2A,Aerocivil,4313.0,85,85430
803,TLU,TLU,TOLU,Tolú Viejo,Sucre,Regional,9.5095,-75.5859,AEROCIVIL,AEROCIVIL,1350.0,16.0,12202.0,15.0,"  455,000",1969-05-19,nan,2A,Aerocivil,1967.0,70,70823
805,TME,TME,GUSTAVO VARGAS,Tame,Arauca,Regional,6.451,-71.7601,AEROCIVIL,AEROCIVIL,2000.0,30.0,33112.0,1199.0,"  343,000",1968-05-03,nan,4C,Aerocivil,5850.0,81,81794
819,TTM,TTM,TABLON DE TAMARA,Támara,Casanare,Aeródromo,5.7267,-72.1006,AEROCIVIL,AEROCIVIL,1317.0,30.0,12202.0,1650.0,"  644,000",1967-06-05,nan,2C,Aerocivil,13.0,85,85400
822,UIB,UIB,EL CARAÑO,Quibdó,Chocó,Nacional,5.6908,-76.6412,AEROCIVIL,EN CONCESION-SOACN(Sociedad Operadora de Aeropuertos Centro Norte,1300.0,30.0,63196.0,192.0,"  522,000",1968-07-03,nan,3C,Aerocivil,88706.0,27,27001
828,URR,URR,ALI PIEDRAHITA,Urrao,Antioquia,Regional,6.3273,-76.1409,AEROCIVIL,AEROCIVIL,865.0,10.0,nan,6104.0,"  551,000",1968-07-10,nan,2A,Aerocivil,3524.0,5,5847
838,VGP,VGZ,CANANGUCHAL,Villagarzón,Putumayo,Regional,0.9785,-76.6064,AEROCIVIL,AEROCIVIL,1300.0,20.0,nan,397.0," 1270,000",1972-05-09,nan,3B,Aerocivil,5927.0,86,86885
848,VUP,VUP,ALFONSO LOPEZ PUMAREJO,Valledupar,Cesar,Nacional,10.4351,-73.2494,AEROCIVIL,AEROCIVIL -ORIENTE S.A.S.,2100.0,30.0,nan,450.0,"  352,000",1968-05-17,nan,4C,Aerocivil,23158.0,20,20001
850,VVC,VVC,VANGUARDIA,Villavicencio,Meta,Nacional,4.1684,-73.6147,AEROCIVIL,AEROCIVIL,1940.0,30.0,nan,1366.0,"  499,000",1968-06-12,nan,3C,Aerocivil,117754.0,50,50001
855,VVU,nan,SANTA ISABEL,Villavicencio,Meta,Aeródromo,3.9873,-73.2091,EFA LTDA.,EFA LTDA.,800.0,10.0,2000.0,689.0," 2634,000",2012-05-24,nan,1A,Fumigación,1.0,50,50001
857,YAP,nan,YAPIMA,Mitú,Vaupés,Aeródromo,1.0825,-69.4914,RESGUARDO INDIGENA,GOBERNACION DEL VAUPES,500.0,15.0,2300.0,600.0," 3423,000",1997-09-16,nan,1A,Público,2.0,97,97001
858,YOP,nan,TROMPILLOS,Yopal,Casanare,Aeródromo,5.0932,-72.1807,ALEXANDER RIVERA,CELTA LTDA.,800.0,15.0,2000.0,623.0," 4736,000",2013-09-06,nan,1A,Fumigación,4.0,85,85001
860,YPP,nan,GERMAN ALBERTO,Yopal,Casanare,Aeródromo,5.1875,-72.3191,JOSE NELSON PEREZ R.,CELTA LTDA.,800.0,15.0,2000.0,735.0," 4511,000",2012-08-16,2015-09-07,1A,Fumigación,12.0,85,85001
862,ZPS,AZT,GUILLERMO GOMEZ ORTIZ,Zapatoca,Santander,Aeródromo,6.7674,-73.2846,MUNICIPIO,MUNICIPIO,700.0,14.0,2300.0,5918.0,"   11,000",1968-01-09,nan,1A,Público,30.0,68,68895
